NORAD_CAT_ID,OBJECT_NAME,OBJECT_TYPE,EPOCH,MEAN_MOTION,ECCENTRICITY,INCLINATION,RA_OF_ASC_NODE,ARG_OF_PERICENTER,MEAN_ANOMALY,BSTAR,MEAN_MOTION_DOT,MEAN_MOTION_DDOT,TLE_LINE0,TLE_LINE1,TLE_LINE2,SEMIMAJOR_AXIS,PERIOD,APOGEE,PERIGEE,DECAYED
54089.0,STARLINK-5143,PAYLOAD,2024-02-11 11:37:31,15.08830539,0.0001582,53.2175,133.2175,90.8746,269.2428,0.00036569,5.535e-05,0.0,0 STARLINK-5143,1 54089U 22136AQ  24042.48439094  .00005535  00000-0  36569-3 0  9993,2 54089  53.2175 133.2175 0001582  90.8746 269.2428 15.08830539 72670,6917.909,95.438,540.869,538.68,0.0
54089.0,STARLINK-5143,PAYLOAD,2024-02-12 11:28:17,15.08849497,0.0001576,53.2177,128.7594,92.9612,267.1561,0.00024594,3.629e-05,0.0,0 STARLINK-5143,1 54089U 22136AQ  24043.47798432  .00003629  00000-0  24594-3 0  9994,2 54089  53.2177 128.7594 0001576  92.9612 267.1561 15.08849497 73291,6917.851,95.437,540.807,538.626,0.0
54089.0,STARLINK-5143,PAYLOAD,2024-02-12 13:03:40,15.08853793,0.0001539,53.2171,128.4612,81.554,278.5626,0.00030472,4.567e-05,0.0,0 STARLINK-5143,1 54089U 22136AQ  24043.54422270  .00004567  00000-0  30472-3 0  9990,2 54089  53.2171 128.4612 0001539  81.5540 278.5626 15.08853793 72837,6917.838,95.437,540.768,538.639,0.0
54089.0,STARLINK-5143,PAYLOAD,2024-02-13 11:19:05,15.08835789,0.0001606,53.2168,124.2968,77.4147,282.7025,-2.2647e-05,-6.48e-06,0.0,0 STARLINK-5143,1 54089U 22136AQ  24044.47159195 -.00000648  00000-0 -22647-4 0  9990,2 54089  53.2168 124.2968 0001606  77.4147 282.7025 15.08835789 73446,6917.893,95.438,540.869,538.647,0.0
54089.0,STARLINK-5143,PAYLOAD,2024-02-13 12:54:28,15.08836041,0.0001639,53.2164,123.9997,68.2161,291.9006,-5.3579e-06,-3.73e-06,0.0,0 STARLINK-5143,1 54089U 22136AQ  24044.53783276 -.00000373  00000-0 -53579-5 0  9994,2 54089  53.2164 123.9997 0001639  68.2161 291.9006 15.08836041 72981,6917.892,95.438,540.891,538.624,0.0
54089.0,STARLINK-5143,PAYLOAD,2024-02-13 22:26:47,15.08836572,0.0001488,53.2162,122.2148,91.3842,268.732,9.2826e-05,1.19e-05,0.0,0 STARLINK-5143,1 54089U 22136AQ  24044.93527321  .00001190  00000-0  92826-4 0  9998,2 54089  53.2162 122.2148 0001488  91.3842 268.7320 15.08836572 73042,6917.891,95.438,540.785,538.726,0.0
54089.0,STARLINK-5143,PAYLOAD,2024-02-14 11:09:52,15.08847439,0.000129,53.2149,119.8344,85.9435,274.1705,0.00026905,3.997e-05,0.0,0 STARLINK-5143,1 54089U 22136AQ  24045.46518945  .00003997  00000-0  26905-3 0  9990,2 54089  53.2149 119.8344 0001290  85.9435 274.1705 15.08847439 73597,6917.858,95.437,540.615,538.83,0.0
54089.0,STARLINK-5143,PAYLOAD,2024-02-14 22:17:34,15.08843697,0.0001519,53.2137,117.7558,80.7808,279.3356,0.00040558,6.173e-05,0.0,0 STARLINK-5143,1 54089U 22136AQ  24045.92887206  .00006173  00000-0  40558-3 0  9999,2 54089  53.2137 117.7558 0001519  80.7808 279.3356 15.08843697 73196,6917.869,95.437,540.785,538.683,0.0
54089.0,STARLINK-5143,PAYLOAD,2024-02-15 04:39:07,15.08841507,0.0002122,53.2141,116.565,85.1901,274.9333,0.00030705,4.602e-05,0.0,0 STARLINK-5143,1 54089U 22136AQ  24046.19383661  .00004602  00000-0  30705-3 0  9993,2 54089  53.2141 116.5650 0002122  85.1901 274.9333 15.08841507 73706,6917.876,95.437,541.209,538.273,0.0
54089.0,STARLINK-5143,PAYLOAD,2024-02-15 11:00:40,15.08835015,0.0001955,53.2177,115.3757,85.2936,274.8279,7.5077e-05,9.07e-06,0.0,0 STARLINK-5143,1 54089U 22136AQ  24046.45879889  .00000907  00000-0  75077-4 0  9990,2 54089  53.2177 115.3757 0001955  85.2936 274.8279 15.08835015 73279,6917.896,95.438,541.113,538.408,0.0
54089.0,STARLINK-5143,PAYLOAD,2024-02-16 10:51:26,15.08848108,0.0001577,53.215,110.9155,90.2769,269.8403,0.00024533,3.619e-05,0.0,0 STARLINK-5143,1 54089U 22136AQ  24047.45239504  .00003619  00000-0  24533-3 0  9998,2 54089  53.2150 110.9155 0001577  90.2769 269.8403 15.08848108 73891,6917.856,95.437,540.812,538.63,0.0
54089.0,STARLINK-5143,PAYLOAD,2024-02-16 14:02:13,15.08851383,0.0001558,53.2149,110.3196,89.0779,271.0391,0.00030986,4.648e-05,0.0,0 STARLINK-5143,1 54089U 22136AQ  24047.58487355  .00004648  00000-0  30986-3 0  9993,2 54089  53.2149 110.3196 0001558  89.0779 271.0391 15.08851383 73445,6917.846,95.437,540.788,538.633,0.0
54089.0,STARLINK-5143,PAYLOAD,2024-02-17 10:42:14,15.08839338,0.0001494,53.2151,106.4549,97.2316,262.8846,0.00020236,2.934e-05,0.0,0 STARLINK-5143,1 54089U 22136AQ  24048.44600260  .00002934  00000-0  20236-3 0  9994,2 54089  53.2151 106.4549 0001494  97.2316 262.8846 15.08839338 74049,6917.882,95.438,540.781,538.714,0.0
54089.0,STARLINK-5143,PAYLOAD,2024-02-17 13:53:00,15.08841156,0.0001559,53.2152,105.8598,98.4209,261.696,0.00026994,4.011e-05,0.0,0 STARLINK-5143,1 54089U 22136AQ  24048.57848211  .00004011  00000-0  26994-3 0  9993,2 54089  53.2152 105.8598 0001559  98.4209 261.6960 15.08841156 73597,6917.877,95.437,540.82,538.663,0.0
54089.0,STARLINK-5143,PAYLOAD,2024-02-17 20:14:33,15.08842463,0.0001443,53.2151,104.6695,95.5808,264.5348,0.00032211,4.842e-05,0.0,0 STARLINK-5143,1 54089U 22136AQ  24048.84344254  .00004842  00000-0  32211-3 0  9992,2 54089  53.2151 104.6695 0001443  95.5808 264.5348 15.08842463 73635,6917.873,95.437,540.736,538.74,0.0
54089.0,STARLINK-5143,PAYLOAD,2024-02-18 10:33:01,15.08849852,0.0001693,53.2168,101.9969,103.8442,256.2738,0.00057902,8.942e-05,0.0,0 STARLINK-5143,1 54089U 22136AQ  24049.43960264  .00008942  00000-0  57902-3 0  9992,2 54089  53.2168 101.9969 0001693 103.8442 256.2738 15.08849852 73721,6917.85,95.437,540.886,538.544,0.0
54089.0,STARLINK-5143,PAYLOAD,2024-02-18 20:05:20,15.0883943,0.0001592,53.2156,100.2121,99.7816,260.3356,0.00037848,5.741e-05,0.0,0 STARLINK-5143,1 54089U 22136AQ  24049.83704467  .00005741  00000-0  37848-3 0  9998,2 54089  53.2156 100.2121 0001592  99.7816 260.3356 15.08839430 74258,6917.882,95.438,540.848,538.646,0.0
54089.0,STARLINK-5143,PAYLOAD,2024-02-19 10:23:48,15.08840291,0.0001561,53.2165,97.5368,100.458,259.6588,0.00012056,1.631e-05,0.0,0 STARLINK-5143,1 54089U 22136AQ  24050.43320521  .00001631  00000-0  12056-3 0  9999,2 54089  53.2165  97.5368 0001561 100.4580 259.6588 15.08840291 73875,6917.879,95.438,540.824,538.665,0.0
54089.0,STARLINK-5143,PAYLOAD,2024-02-19 19:56:07,15.08840733,0.0001623,53.2172,95.7528,98.7801,261.3376,8.9098e-05,1.13e-05,0.0,0 STARLINK-5143,1 54089U 22136AQ  24050.83064513  .00001130  00000-0  89098-4 0  9994,2 54089  53.2172  95.7528 0001623  98.7801 261.3376 15.08840733 74401,6917.878,95.438,540.866,538.62,0.0
54089.0,STARLINK-5143,PAYLOAD,2024-02-20 11:49:59,15.08841545,0.0001619,53.2173,92.7774,92.527,267.5907,5.0361e-05,5.14e-06,0.0,0 STARLINK-5143,1 54089U 22136AQ  24051.49304616  .00000514  00000-0  50361-4 0  9994,2 54089  53.2173  92.7774 0001619  92.5270 267.5907 15.08841545 74038,6917.876,95.437,540.861,538.621,0.0
54089.0,STARLINK-5143,PAYLOAD,2024-02-20 19:46:54,15.08840311,0.0001445,53.2162,91.2884,82.4896,277.6261,7.0926e-05,8.41e-06,0.0,0 STARLINK-5143,1 54089U 22136AQ  24051.82424695  .00000841  00000-0  70926-4 0  9993,2 54089  53.2162  91.2884 0001445  82.4896 277.6261 15.08840311 74081,6917.879,95.438,540.744,538.745,0.0
54089.0,STARLINK-5143,PAYLOAD,2024-02-21 10:05:23,15.08835612,0.00016,53.2168,88.6117,84.1204,275.9971,0.00039217,5.958e-05,0.0,0 STARLINK-5143,1 54089U 22136AQ  24052.42041111  .00005958  00000-0  39217-3 0  9999,2 54089  53.2168  88.6117 0001600  84.1204 275.9971 15.08835612 74640,6917.894,95.438,540.866,538.652,0.0
54089.0,STARLINK-5143,PAYLOAD,2024-02-21 19:37:41,15.08843589,0.000148,53.2164,86.8281,86.9227,273.1934,0.00013923,1.929e-05,0.0,0 STARLINK-5143,1 54089U 22136AQ  24052.81784578  .00001929  00000-0  13923-3 0  9993,2 54089  53.2164  86.8281 0001480  86.9227 273.1934 15.08843589 74235,6917.869,95.437,540.758,538.711,0.0
54089.0,STARLINK-5143,PAYLOAD,2024-02-22 11:31:33,15.08845384,0.0001398,53.2163,83.8548,88.4529,271.6623,8.184e-05,1.015e-05,0.0,0 STARLINK-5143,1 54089U 22136AQ  24053.48024513  .00001015  00000-0  81840-4 0  9993,2 54089  53.2163  83.8548 0001398  88.4529 271.6623 15.08845384 74803,6917.864,95.437,540.696,538.762,0.0
54089.0,STARLINK-5143,PAYLOAD,2024-02-22 19:28:29,15.08840817,0.0001308,53.2165,82.3677,92.754,267.3602,8.8469e-05,1.12e-05,0.0,0 STARLINK-5143,1 54089U 22136AQ  24053.81144719  .00001120  00000-0  88469-4 0  9992,2 54089  53.2165  82.3677 0001308  92.7540 267.3602 15.08840817 74382,6917.878,95.438,540.648,538.838,0.0
54089.0,STARLINK-5143,PAYLOAD,2024-02-23 08:11:34,15.08842341,0.0001419,53.2166,79.9891,85.1998,274.9156,6.9897e-05,8.25e-06,0.0,0 STARLINK-5143,1 54089U 22136AQ  24054.34136631  .00000825  00000-0  69897-4 0  9990,2 54089  53.2166  79.9891 0001419  85.1998 274.9156 15.08842341 74932,6917.873,95.437,540.72,538.757,0.0
54089.0,STARLINK-5143,PAYLOAD,2024-02-24 11:13:07,15.08846334,0.000155,53.2168,74.932,92.0467,268.0703,2.1461e-05,5.4e-07,0.0,0 STARLINK-5143,1 54089U 22136AQ  24055.46744484  .00000054  00000-0  21461-4 0  9994,2 54089  53.2168  74.9320 0001550  92.0467 268.0703 15.08846334 75108,6917.861,95.437,540.798,538.654,0.0
54089.0,STARLINK-5143,PAYLOAD,2024-02-25 04:42:22,15.0883566,0.0001592,53.2168,71.66,92.7012,267.4162,1.9575e-05,2.4e-07,0.0,0 STARLINK-5143,1 54089U 22136AQ  24056.19609310  .00000024  00000-0  19575-4 0  9993,2 54089  53.2168  71.6600 0001592  92.7012 267.4162 15.08835660 75216,6917.894,95.438,540.86,538.657,0.0
54089.0,STARLINK-5143,PAYLOAD,2024-02-25 07:53:08,15.08838568,0.0001536,53.2173,71.0659,90.3687,269.7482,5.1248e-05,5.28e-06,0.0,0 STARLINK-5143,1 54089U 22136AQ  24056.32857050  .00000528  00000-0  51248-4 0  9996,2 54089  53.2173  71.0659 0001536  90.3687 269.7482 15.08838568 74769,6917.885,95.438,540.812,538.687,0.0
54089.0,STARLINK-5143,PAYLOAD,2024-02-25 17:25:27,15.08842747,0.0001557,53.218,69.2841,91.1146,269.0025,1.1686e-05,-1.02e-06,0.0,0 STARLINK-5143,1 54089U 22136AQ  24056.72600953 -.00000102  00000-0  11686-4 0  9999,2 54089  53.2180  69.2841 0001557  91.1146 269.0025 15.08842747 74828,6917.872,95.437,540.814,538.66,0.0
